[
  {
    "OBJECT_NAME": "STARLINK-31191",
    "OBJECT_ID": "24012P",
    "EPOCH": "2025-11-10T10:53:07.075104",
    "MEAN_MOTION": 15.27578401,
    "ECCENTRICITY": 0.0001735,
    "INCLINATION": 43.002,
    "RA_OF_ASC_NODE": 118.3429,
    "ARG_OF_PERICENTER": 249.4176,
    "MEAN_ANOMALY": 110.649,
    "EPHEMERIS_TYPE": 0,
    "CLASSIFICATION_TYPE": "U",
    "NORAD_CAT_ID": 58800,
    "ELEMENT_SET_NO": 999,
    "REV_AT_EPOCH": 10300,
    "BSTAR": 0.0,
    "MEAN_MOTION_DOT": -1.294e-05,
    "MEAN_MOTION_DDOT": 0.0,
    "TLE_LINE1": "1 58800U 24012P   25314.45355411 -.00001294  00000+0 -37489-4 0  9995",
    "TLE_LINE2": "2 58800  43.0020 118.3429 0001735 249.4176 110.6490 15.27578401103004",
    "COMMENT": "Grouped by shell and plane from TLE"
  },
  {
    "OBJECT_NAME": "STARLINK-31170",
    "OBJECT_ID": "24012Q",
    "EPOCH": "2025-11-10T17:46:45.028416",
    "MEAN_MOTION": 15.27591227,
    "ECCENTRICITY": 0.0001305,
    "INCLINATION": 43.0008,
    "RA_OF_ASC_NODE": 117.0604,
    "ARG_OF_PERICENTER": 273.369,
    "MEAN_ANOMALY": 86.7012,
    "EPHEMERIS_TYPE": 0,
    "CLASSIFICATION_TYPE": "U",
    "NORAD_CAT_ID": 58801,
    "ELEMENT_SET_NO": 999,
    "REV_AT_EPOCH": 10304,
    "BSTAR": 8.4385e-05,
    "MEAN_MOTION_DOT": 2.061e-05,
    "MEAN_MOTION_DDOT": 0.0,
    "TLE_LINE1": "1 58801U 24012Q   25314.74079894  .00002061  00000+0  84385-4 0  9994",
    "TLE_LINE2": "2 58801  43.0008 117.0604 0001305 273.3690  86.7012 15.27591227103040",
    "COMMENT": "Grouped by shell and plane from TLE"
  },
  {
    "OBJECT_NAME": "STARLINK-31141",
    "OBJECT_ID": "24012S",
    "EPOCH": "2025-11-11T03:26:30.143616",
    "MEAN_MOTION": 15.27580269,
    "ECCENTRICITY": 0.0001383,
    "INCLINATION": 42.9991,
    "RA_OF_ASC_NODE": 114.9197,
    "ARG_OF_PERICENTER": 277.5285,
    "MEAN_ANOMALY": 82.5409,
    "EPHEMERIS_TYPE": 0,
    "CLASSIFICATION_TYPE": "U",
    "NORAD_CAT_ID": 58803,
    "ELEMENT_SET_NO": 999,
    "REV_AT_EPOCH": 10310,
    "BSTAR": 0.0,
    "MEAN_MOTION_DOT": -3.972e-05,
    "MEAN_MOTION_DDOT": 0.0,
    "TLE_LINE1": "1 58803U 24012S   25315.14340444 -.00003972  00000+0 -13489-3 0  9993",
    "TLE_LINE2": "2 58803  42.9991 114.9197 0001383 277.5285  82.5409 15.27580269103101",
    "COMMENT": "Grouped by shell and plane from TLE"
  },
  {
    "OBJECT_NAME": "STARLINK-31188",
    "OBJECT_ID": "24012T",
    "EPOCH": "2025-11-11T03:17:14.449920",
    "MEAN_MOTION": 15.27591159,
    "ECCENTRICITY": 0.0001614,
    "INCLINATION": 43.0008,
    "RA_OF_ASC_NODE": 114.8733,
    "ARG_OF_PERICENTER": 271.4138,
    "MEAN_ANOMALY": 88.6529,
    "EPHEMERIS_TYPE": 0,
    "CLASSIFICATION_TYPE": "U",
    "NORAD_CAT_ID": 58804,
    "ELEMENT_SET_NO": 999,
    "REV_AT_EPOCH": 10310,
    "BSTAR": 0.00011204,
    "MEAN_MOTION_DOT": 2.823e-05,
    "MEAN_MOTION_DDOT": 0.0,
    "TLE_LINE1": "1 58804U 24012T   25315.13697280  .00002823  00000+0  11204-3 0  9991",
    "TLE_LINE2": "2 58804  43.0008 114.8733 0001614 271.4138  88.6529 15.27591159103105",
    "COMMENT": "Grouped by shell and plane from TLE"
  },
  {
    "OBJECT_NAME": "STARLINK-31138",
    "OBJECT_ID": "24012V",
    "EPOCH": "2025-11-11T03:20:56.967936",
    "MEAN_MOTION": 15.27592573,
    "ECCENTRICITY": 0.0001959,
    "INCLINATION": 43.0013,
    "RA_OF_ASC_NODE": 114.8904,
    "ARG_OF_PERICENTER": 261.7659,
    "MEAN_ANOMALY": 98.297,
    "EPHEMERIS_TYPE": 0,
    "CLASSIFICATION_TYPE": "U",
    "NORAD_CAT_ID": 58806,
    "ELEMENT_SET_NO": 999,
    "REV_AT_EPOCH": 10310,
    "BSTAR": 0.00012353,
    "MEAN_MOTION_DOT": 3.14e-05,
    "MEAN_MOTION_DDOT": 0.0,
    "TLE_LINE1": "1 58806U 24012V   25315.13954824  .00003140  00000+0  12353-3 0  9992",
    "TLE_LINE2": "2 58806  43.0013 114.8904 0001959 261.7659  98.2970 15.27592573103103",
    "COMMENT": "Grouped by shell and plane from TLE"
  },
  {
    "OBJECT_NAME": "STARLINK-31163",
    "OBJECT_ID": "24012W",
    "EPOCH": "2025-11-11T03:57:44.757504",
    "MEAN_MOTION": 15.27581744,
    "ECCENTRICITY": 9.16e-05,
    "INCLINATION": 43.0008,
    "RA_OF_ASC_NODE": 114.2264,
    "ARG_OF_PERICENTER": 284.8925,
    "MEAN_ANOMALY": 75.1825,
    "EPHEMERIS_TYPE": 0,
    "CLASSIFICATION_TYPE": "U",
    "NORAD_CAT_ID": 58807,
    "ELEMENT_SET_NO": 999,
    "REV_AT_EPOCH": 10311,
    "BSTAR": 4.3981e-05,
    "MEAN_MOTION_DOT": 9.49e-06,
    "MEAN_MOTION_DDOT": 0.0,
    "TLE_LINE1": "1 58807U 24012W   25315.16510136  .00000949  00000+0  43981-4 0  9996",
    "TLE_LINE2": "2 58807  43.0008 114.2264 0000916 284.8925  75.1825 15.27581744103117",
    "COMMENT": "Grouped by shell and plane from TLE"
  },
  {
    "OBJECT_NAME": "STARLINK-31174",
    "OBJECT_ID": "24012X",
    "EPOCH": "2025-11-11T03:55:54.117120",
    "MEAN_MOTION": 15.27569334,
    "ECCENTRICITY": 0.0001494,
    "INCLINATION": 43.0076,
    "RA_OF_ASC_NODE": 114.2164,
    "ARG_OF_PERICENTER": 256.0157,
    "MEAN_ANOMALY": 104.0529,
    "EPHEMERIS_TYPE": 0,
    "CLASSIFICATION_TYPE": "U",
    "NORAD_CAT_ID": 58808,
    "ELEMENT_SET_NO": 999,
    "REV_AT_EPOCH": 10311,
    "BSTAR": 7.0883e-05,
    "MEAN_MOTION_DOT": 1.688e-05,
    "MEAN_MOTION_DDOT": 0.0,
    "TLE_LINE1": "1 58808U 24012X   25315.16382080  .00001688  00000+0  70883-4 0  9994",
    "TLE_LINE2": "2 58808  43.0076 114.2164 0001494 256.0157 104.0529 15.27569334103116",
    "COMMENT": "Grouped by shell and plane from TLE"
  },
  {
    "OBJECT_NAME": "STARLINK-31169",
    "OBJECT_ID": "24012Y",
    "EPOCH": "2025-11-11T03:15:23.730912",
    "MEAN_MOTION": 15.2757231,
    "ECCENTRICITY": 0.0001253,
    "INCLINATION": 43.0038,
    "RA_OF_ASC_NODE": 114.8627,
    "ARG_OF_PERICENTER": 272.5361,
    "MEAN_ANOMALY": 87.5347,
    "EPHEMERIS_TYPE": 0,
    "CLASSIFICATION_TYPE": "U",
    "NORAD_CAT_ID": 58809,
    "ELEMENT_SET_NO": 999,
    "REV_AT_EPOCH": 10310,
    "BSTAR": 0.00022614,
    "MEAN_MOTION_DOT": 5.964e-05,
    "MEAN_MOTION_DDOT": 0.0,
    "TLE_LINE1": "1 58809U 24012Y   25315.13569133  .00005964  00000+0  22614-3 0  9997",
    "TLE_LINE2": "2 58809  43.0038 114.8627 0001253 272.5361  87.5347 15.27572310103108",
    "COMMENT": "Grouped by shell and plane from TLE"
  },
  {
    "OBJECT_NAME": "STARLINK-31245",
    "OBJECT_ID": "24020R",
    "EPOCH": "2025-11-11T03:25:45.099840",
    "MEAN_MOTION": 15.30196275,
    "ECCENTRICITY": 0.0001348,
    "INCLINATION": 53.1599,
    "RA_OF_ASC_NODE": 111.9115,
    "ARG_OF_PERICENTER": 87.7101,
    "MEAN_ANOMALY": 272.4054,
    "EPHEMERIS_TYPE": 0,
    "CLASSIFICATION_TYPE": "U",
    "NORAD_CAT_ID": 58891,
    "ELEMENT_SET_NO": 999,
    "REV_AT_EPOCH": 10165,
    "BSTAR": 3.4361000000000005e-05,
    "MEAN_MOTION_DOT": 6.58e-06,
    "MEAN_MOTION_DDOT": 0.0,
    "TLE_LINE1": "1 58891U 24020R   25315.14288310  .00000658  00000+0  34361-4 0  9991",
    "TLE_LINE2": "2 58891  53.1599 111.9115 0001348  87.7101 272.4054 15.30196275101650",
    "COMMENT": "Grouped by shell and plane from TLE"
  },
  {
    "OBJECT_NAME": "STARLINK-31333",
    "OBJECT_ID": "24031G",
    "EPOCH": "2025-11-10T20:12:49.420224",
    "MEAN_MOTION": 15.30197372,
    "ECCENTRICITY": 7.58e-05,
    "INCLINATION": 53.1624,
    "RA_OF_ASC_NODE": 116.1904,
    "ARG_OF_PERICENTER": 90.4495,
    "MEAN_ANOMALY": 269.6593,
    "EPHEMERIS_TYPE": 0,
    "CLASSIFICATION_TYPE": "U",
    "NORAD_CAT_ID": 58971,
    "ELEMENT_SET_NO": 999,
    "REV_AT_EPOCH": 9851,
    "BSTAR": 2.4288000000000002e-05,
    "MEAN_MOTION_DOT": 3.61e-06,
    "MEAN_MOTION_DDOT": 0.0,
    "TLE_LINE1": "1 58971U 24031G   25314.84223866  .00000361  00000+0  24288-4 0  9991",
    "TLE_LINE2": "2 58971  53.1624 116.1904 0000758  90.4495 269.6593 15.30197372 98517",
    "COMMENT": "Grouped by shell and plane from TLE"
  },
  {
    "OBJECT_NAME": "STARLINK-31757",
    "OBJECT_ID": "24065G",
    "EPOCH": "2025-11-10T20:10:27.288768",
    "MEAN_MOTION": 15.30201674,
    "ECCENTRICITY": 0.0001462,
    "INCLINATION": 53.1594,
    "RA_OF_ASC_NODE": 113.6861,
    "ARG_OF_PERICENTER": 87.6059,
    "MEAN_ANOMALY": 272.5109,
    "EPHEMERIS_TYPE": 0,
    "CLASSIFICATION_TYPE": "U",
    "NORAD_CAT_ID": 59427,
    "ELEMENT_SET_NO": 999,
    "REV_AT_EPOCH": 9073,
    "BSTAR": 3.6298000000000004e-06,
    "MEAN_MOTION_DOT": -2.52e-06,
    "MEAN_MOTION_DDOT": 0.0,
    "TLE_LINE1": "1 59427U 24065G   25314.84059362 -.00000252  00000+0  36298-5 0  9998",
    "TLE_LINE2": "2 59427  53.1594 113.6861 0001462  87.6059 272.5109 15.30201674 90734",
    "COMMENT": "Grouped by shell and plane from TLE"
  },
  {
    "OBJECT_NAME": "STARLINK-31773",
    "OBJECT_ID": "24065J",
    "EPOCH": "2025-11-10T21:17:55.248864",
    "MEAN_MOTION": 15.30260317,
    "ECCENTRICITY": 0.0001726,
    "INCLINATION": 53.1581,
    "RA_OF_ASC_NODE": 115.3944,
    "ARG_OF_PERICENTER": 74.6057,
    "MEAN_ANOMALY": 285.5135,
    "EPHEMERIS_TYPE": 0,
    "CLASSIFICATION_TYPE": "U",
    "NORAD_CAT_ID": 59429,
    "ELEMENT_SET_NO": 999,
    "REV_AT_EPOCH": 9071,
    "BSTAR": 0.0,
    "MEAN_MOTION_DOT": -0.00012821,
    "MEAN_MOTION_DDOT": 0.0,
    "TLE_LINE1": "1 59429U 24065J   25314.88744501 -.00012821  00000+0 -42068-3 0  9996",
    "TLE_LINE2": "2 59429  53.1581 115.3944 0001726  74.6057 285.5135 15.30260317 90710",
    "COMMENT": "Grouped by shell and plane from TLE"
  },
  {
    "OBJECT_NAME": "STARLINK-31772",
    "OBJECT_ID": "24065K",
    "EPOCH": "2025-11-09T20:16:52.392576",
    "MEAN_MOTION": 15.30184179,
    "ECCENTRICITY": 9.78e-05,
    "INCLINATION": 53.1611,
    "RA_OF_ASC_NODE": 118.1268,
    "ARG_OF_PERICENTER": 101.2527,
    "MEAN_ANOMALY": 258.8584,
    "EPHEMERIS_TYPE": 0,
    "CLASSIFICATION_TYPE": "U",
    "NORAD_CAT_ID": 59430,
    "ELEMENT_SET_NO": 999,
    "REV_AT_EPOCH": 9058,
    "BSTAR": 1.5981e-05,
    "MEAN_MOTION_DOT": 1.14e-06,
    "MEAN_MOTION_DDOT": 0.0,
    "TLE_LINE1": "1 59430U 24065K   25313.84505084  .00000114  00000+0  15981-4 0  9999",
    "TLE_LINE2": "2 59430  53.1611 118.1268 0000978 101.2527 258.8584 15.30184179 90580",
    "COMMENT": "Grouped by shell and plane from TLE"
  }
]